ORBCOMM FM115           
1 41186U 15081H   25132.59329344  .00000679  00000+0  16722-3 0  9999
2 41186  46.9977 208.8346 0001765 259.0158 101.0531 14.62444932502562
ORBCOMM FM108           
1 41187U 15081J   25132.47089689  .00000959  00000+0  24283-3 0  9994
2 41187  47.0050 275.6370 0002646 167.1578 192.9375 14.58097286501587
ORBCOMM FM117           
1 41188U 15081K   25132.64268101  .00000891  00000+0  22834-3 0  9997
2 41188  47.0013 273.5995 0003194 173.3410 186.7518 14.58099506501655
ORBCOMM FM116           
1 41189U 15081L   25132.63170259  .00000978  00000+0  24686-3 0  9996
2 41189  47.0037   3.4984 0002419 341.7148  18.3650 14.58111863500464
